SPACEMOBILE-003         
1 61045U 24163A   26177.81235899  .00001689  00000+0  90246-4 0  9998
2 61045  52.9744 265.1828 0005991 141.0621 219.0806 15.20822722 99230
SPACEMOBILE-005         
1 61046U 24163B   26183.44732106  .00007420  00000+0  34611-3 0  9990
2 61046  52.9802 239.2022 0008968 155.2671 204.8755 15.20831414100082
SPACEMOBILE-001         
1 61047U 24163C   26183.24877076  .00003050  00000+0  15091-3 0  9991
2 61047  52.9759 239.8348 0007934 153.4370 206.7032 15.20863152100059
SPACEMOBILE-002         
1 61048U 24163D   26183.56146906  .00011610  00000+0  53274-3 0  9994
2 61048  52.9727 238.4396 0007000 156.5102 203.6213 15.20853354100100
SPACEMOBILE-004         
1 61049U 24163E   26183.54372907  .00005309  00000+0  25207-3 0  9998
2 61049  52.9656 238.3078 0008065 185.4439 174.6469 15.20809902100104
SPACEMOBILE-001 DEB     
1 62369U 24163F   26183.55038174  .00009484  00000+0  28422-3 0  9990
2 62369  52.9912 206.9460 0006378 206.2050 153.8629 15.35189491 88862
SPACEMOBILE-002 DEB     
1 62370U 24163G   26183.53102102  .00017813  00000+0  40087-3 0  9999
2 62370  52.9398 191.9864 0004687 237.2403 122.8149 15.43392935100732
SPACEMOBILE-003 DEB     
1 62371U 24163H   26183.48154740  .00016651  00000+0  40440-3 0  9991
2 62371  52.9674 198.8805 0006019 191.8821 168.2041 15.41144590 94244
SPACEMOBILE-004 DEB     
1 62372U 24163J   26183.55877830  .00012648  00000+0  31687-3 0  9997
2 62372  52.9824 198.0795 0003107 211.1578 148.9241 15.40455351 97320
SPACEMOBILE-005 DEB     
1 62373U 24163K   26183.50147445  .00009942  00000+0  30440-3 0  9994
2 62373  52.9718 212.0357 0006433 185.7530 174.3397 15.34450655100474
SPACEMOBILE-006         
1 67232U 25309A   26183.50932692  .00002684  00000+0  14322-3 0  9999
2 67232  52.9975 261.4494 0010838 173.7756 186.3374 15.18624150 28921
SPACEMOBILE-008         
1 69589U 26139A   26183.46820596  .00000180  00000+0  27082-4 0  9999
2 69589  52.9936 193.1895 0004379  25.0436 335.0767 15.12787531  2296
SPACEMOBILE-009         
1 69590U 26139B   26183.53534136  .00000180  00000+0  27167-4 0  9995
2 69590  52.9925 192.8923 0004599  19.8391 340.2778 15.12680871  2300
SPACEMOBILE-010         
1 69591U 26139C   26183.53704068  .00000194  00000+0  28056-4 0  9992
2 69591  52.9931 192.9051 0004457  10.5489 349.5594 15.12512032  2312
